NORAD_CAT_ID,OBJECT_NAME,OBJECT_TYPE,EPOCH,MEAN_MOTION,ECCENTRICITY,INCLINATION,RA_OF_ASC_NODE,ARG_OF_PERICENTER,MEAN_ANOMALY,BSTAR,MEAN_MOTION_DOT,MEAN_MOTION_DDOT,TLE_LINE0,TLE_LINE1,TLE_LINE2,SEMIMAJOR_AXIS,PERIOD,APOGEE,PERIGEE,DECAYED
55957.0,STARLINK-5884,PAYLOAD,2024-01-09 14:22:27,14.98333094,0.0002841,70.0004,96.6219,262.6059,97.4777,3.3828e-05,3.11e-06,0.0,0 STARLINK-5884,1 55957U 23037AV  24009.59893329  .00000311  00000-0  33828-4 0  9992,2 55957  70.0004  96.6219 0002841 262.6059  97.4777 14.98333094 46120,6950.183,96.107,574.023,570.074,0.0
55957.0,STARLINK-5884,PAYLOAD,2024-01-09 15:58:35,14.98334695,0.0002843,70.0003,96.4537,262.3149,97.7687,2.4816e-05,2.03e-06,0.0,0 STARLINK-5884,1 55957U 23037AV  24009.66569227  .00000203  00000-0  24816-4 0  9994,2 55957  70.0003  96.4537 0002843 262.3149  97.7687 14.98334695 46478,6950.178,96.107,574.019,570.067,0.0
55957.0,STARLINK-5884,PAYLOAD,2024-01-10 11:12:12,14.98328444,0.0002749,70.0005,94.4337,263.1949,96.8898,-3.288e-06,-1.32e-06,0.0,0 STARLINK-5884,1 55957U 23037AV  24010.46681602 -.00000132  00000-0 -32880-5 0  9990,2 55957  70.0005  94.4337 0002749 263.1949  96.8898 14.98328444 46590,6950.198,96.107,573.973,570.152,0.0
55957.0,STARLINK-5884,PAYLOAD,2024-01-11 11:14:13,14.98331121,0.0002677,70.0005,91.9091,260.5374,99.5483,-2.435e-06,-1.22e-06,0.0,0 STARLINK-5884,1 55957U 23037AV  24011.46821304 -.00000122  00000-0 -24350-5 0  9998,2 55957  70.0005  91.9091 0002677 260.5374  99.5483 14.98331121 46745,6950.189,96.107,573.915,570.194,0.0
55957.0,STARLINK-5884,PAYLOAD,2024-01-11 14:26:29,14.98332428,0.0002658,70.0006,91.5725,261.1883,98.8975,1.3279e-05,6.6e-07,0.0,0 STARLINK-5884,1 55957U 23037AV  24011.60173162  .00000066  00000-0  13279-4 0  9998,2 55957  70.0006  91.5725 0002658 261.1883  98.8975 14.98332428 46421,6950.185,96.107,573.898,570.203,0.0
55957.0,STARLINK-5884,PAYLOAD,2024-01-11 16:02:37,14.98332138,0.0002657,70.0006,91.4042,262.1834,97.9023,1.0285e-05,3e-07,0.0,0 STARLINK-5884,1 55957U 23037AV  24011.66849182  .00000030  00000-0  10285-4 0  9991,2 55957  70.0006  91.4042 0002657 262.1834  97.9023 14.98332138 46431,6950.186,96.107,573.898,570.205,0.0
55957.0,STARLINK-5884,PAYLOAD,2024-01-12 11:16:14,14.98325596,0.0002615,70.0004,89.3842,266.0394,94.0466,-2.7343e-05,-4.19e-06,0.0,0 STARLINK-5884,1 55957U 23037AV  24012.46961730 -.00000419  00000-0 -27343-4 0  9990,2 55957  70.0004  89.3842 0002615 266.0394  94.0466 14.98325596 46890,6950.207,96.107,573.889,570.254,0.0
55957.0,STARLINK-5884,PAYLOAD,2024-01-12 14:28:30,14.98327119,0.0002589,70.0005,89.0476,265.6202,94.4662,-8.5779e-06,-1.95e-06,0.0,0 STARLINK-5884,1 55957U 23037AV  24012.60313601 -.00000195  00000-0 -85779-5 0  9993,2 55957  70.0005  89.0476 0002589 265.6202  94.4662 14.98327119 46574,6950.202,96.107,573.866,570.267,0.0
55957.0,STARLINK-5884,PAYLOAD,2024-01-13 11:18:15,14.98327708,0.0002889,69.9994,86.8582,270.3696,89.7132,-3.5904e-05,-5.21e-06,0.0,0 STARLINK-5884,1 55957U 23037AV  24013.47101744 -.00000521  00000-0 -35904-4 0  9999,2 55957  69.9994  86.8582 0002889 270.3696  89.7132 14.98327708 47040,6950.2,96.107,574.073,570.057,0.0
55957.0,STARLINK-5884,PAYLOAD,2024-01-13 14:30:31,14.98331697,0.0002812,69.9997,86.5223,270.5291,89.5545,9.199e-06,1.7e-07,0.0,0 STARLINK-5884,1 55957U 23037AV  24013.60453353  .00000017  00000-0  91990-5 0  9996,2 55957  69.9997  86.5223 0002812 270.5291  89.5545 14.98331697 46723,6950.188,96.107,574.007,570.098,0.0
55957.0,STARLINK-5884,PAYLOAD,2024-01-14 11:20:16,14.98327807,0.0002513,70.0002,84.3343,262.7473,97.34,5.7059e-05,5.88e-06,0.0,0 STARLINK-5884,1 55957U 23037AV  24014.47241511  .00000588  00000-0  57059-4 0  9993,2 55957  70.0002  84.3343 0002513 262.7473  97.3400 14.98327807 47192,6950.2,96.107,573.811,570.318,0.0
55957.0,STARLINK-5884,PAYLOAD,2024-01-14 14:32:32,14.98331466,0.0002546,70.0002,83.9977,267.3582,92.7285,9.3963e-05,1.028e-05,0.0,0 STARLINK-5884,1 55957U 23037AV  24014.60593194  .00001028  00000-0  93963-4 0  9999,2 55957  70.0002  83.9977 0002546 267.3582  92.7285 14.98331466 46878,6950.188,96.107,573.823,570.284,0.0
55957.0,STARLINK-5884,PAYLOAD,2024-01-15 11:22:17,14.98333985,0.00025,70.0006,81.8104,258.3865,101.7014,3.4688e-05,3.21e-06,0.0,0 STARLINK-5884,1 55957U 23037AV  24015.47380961  .00000321  00000-0  34688-4 0  9995,2 55957  70.0006  81.8104 0002500 258.3865 101.7014 14.98333985 47347,6950.181,96.107,573.783,570.308,0.0
55957.0,STARLINK-5884,PAYLOAD,2024-01-15 14:34:33,14.98335197,0.0002495,70.0007,81.474,258.6539,101.434,4.5889e-05,4.55e-06,0.0,0 STARLINK-5884,1 55957U 23037AV  24015.60732811  .00000455  00000-0  45889-4 0  9998,2 55957  70.0007  81.4740 0002495 258.6539 101.4340 14.98335197 47025,6950.177,96.107,573.776,570.308,0.0
55957.0,STARLINK-5884,PAYLOAD,2024-01-16 03:23:38,14.9832891,0.0002395,70.0011,80.1285,256.3744,103.7148,-4.8991e-05,-6.77e-06,0.0,0 STARLINK-5884,1 55957U 23037AV  24016.14141417 -.00000677  00000-0 -48991-4 0  9999,2 55957  70.0011  80.1285 0002395 256.3744 103.7148 14.98328910 47444,6950.196,96.107,573.726,570.397,0.0
55957.0,STARLINK-5884,PAYLOAD,2024-01-16 11:24:19,14.98322618,0.0002466,70.001,79.2859,259.2831,100.805,-0.00011259,-1.436e-05,0.0,0 STARLINK-5884,1 55957U 23037AV  24016.47522054 -.00001436  00000-0 -11259-3 0  9995,2 55957  70.0010  79.2859 0002466 259.2831 100.8050 14.98322618 47491,6950.216,96.107,573.795,570.367,0.0
55957.0,STARLINK-5884,PAYLOAD,2024-01-16 13:00:27,14.98322691,0.0002463,70.001,79.1177,259.5151,100.5731,-0.00011021,-1.407e-05,0.0,0 STARLINK-5884,1 55957U 23037AV  24016.54198066 -.00001407  00000-0 -11021-3 0  9990,2 55957  70.0010  79.1177 0002463 259.5151 100.5731 14.98322691 47166,6950.215,96.107,573.792,570.369,0.0
55957.0,STARLINK-5884,PAYLOAD,2024-01-16 22:37:14,14.98331553,0.0002724,70.0006,78.1082,254.6473,105.4385,-1.9839e-05,-3.3e-06,0.0,0 STARLINK-5884,1 55957U 23037AV  24016.94253187 -.00000330  00000-0 -19839-4 0  9990,2 55957  70.0006  78.1082 0002724 254.6473 105.4385 14.98331553 47568,6950.188,96.107,573.946,570.16,0.0
55957.0,STARLINK-5884,PAYLOAD,2024-01-17 13:02:27,14.98333184,0.0002808,70.0001,76.5917,261.537,98.5471,-5.937e-06,-1.64e-06,0.0,0 STARLINK-5884,1 55957U 23037AV  24017.54337056 -.00000164  00000-0 -59370-5 0  9995,2 55957  70.0001  76.5917 0002808 261.5370  98.5471 14.98333184 47311,6950.183,96.107,574.0,570.096,0.0
55957.0,STARLINK-5884,PAYLOAD,2024-01-18 03:27:39,14.98326144,0.0002925,69.9996,75.0759,264.9067,95.1758,6.6814e-05,7.04e-06,0.0,0 STARLINK-5884,1 55957U 23037AV  24018.14421271  .00000704  00000-0  66814-4 0  9993,2 55957  69.9996  75.0759 0002925 264.9067  95.1758 14.98326144 47745,6950.205,96.107,574.103,570.037,0.0
55957.0,STARLINK-5884,PAYLOAD,2024-01-18 13:04:28,14.98329127,0.0003011,69.9994,74.0658,267.1227,92.9587,8.2982e-05,8.97e-06,0.0,0 STARLINK-5884,1 55957U 23037AV  24018.54477092  .00000897  00000-0  82982-4 0  9996,2 55957  69.9994  74.0658 0003011 267.1227  92.9587 14.98329127 47468,6950.196,96.107,574.153,569.968,0.0
55957.0,STARLINK-5884,PAYLOAD,2024-01-19 11:30:21,14.98332541,0.0002899,69.9996,71.7091,267.9548,92.1279,2.3587e-06,-6.5e-07,0.0,0 STARLINK-5884,1 55957U 23037AV  24019.47941099 -.00000065  00000-0  23587-5 0  9997,2 55957  69.9996  71.7091 0002899 267.9548  92.1279 14.98332541 47949,6950.185,96.107,574.065,570.035,0.0
55957.0,STARLINK-5884,PAYLOAD,2024-01-19 13:06:29,14.98333391,0.0002894,69.9997,71.5409,267.8402,92.2426,1.1249e-05,4.1e-07,0.0,0 STARLINK-5884,1 55957U 23037AV  24019.54617004  .00000041  00000-0  11249-4 0  9995,2 55957  69.9997  71.5409 0002894 267.8402  92.2426 14.98333391 47617,6950.182,96.107,574.059,570.036,0.0
55957.0,STARLINK-5884,PAYLOAD,2024-01-20 11:32:22,14.98330122,0.0002831,69.9998,69.1836,267.5035,92.58,-8.1614e-06,-1.9e-06,0.0,0 STARLINK-5884,1 55957U 23037AV  24020.48081225 -.00000190  00000-0 -81614-5 0  9991,2 55957  69.9998  69.1836 0002831 267.5035  92.5800 14.98330122 48096,6950.193,96.107,574.025,570.09,0.0
55957.0,STARLINK-5884,PAYLOAD,2024-01-20 13:08:30,14.98330956,0.0002829,69.9998,69.0153,267.4838,92.5997,1.2898e-06,-7.8e-07,0.0,0 STARLINK-5884,1 55957U 23037AV  24020.54757143 -.00000078  00000-0  12898-5 0  9999,2 55957  69.9998  69.0153 0002829 267.4838  92.5997 14.98330956 47769,6950.19,96.107,574.021,570.089,0.0
55957.0,STARLINK-5884,PAYLOAD,2024-01-21 06:45:58,14.98329779,0.0002675,70.0,67.1641,262.0632,98.0224,-6.785e-06,-1.74e-06,0.0,0 STARLINK-5884,1 55957U 23037AV  24021.28193210 -.00000174  00000-0 -67850-5 0  9996,2 55957  70.0000  67.1641 0002675 262.0632  98.0224 14.98329779 47876,6950.194,96.107,573.918,570.199,0.0
55957.0,STARLINK-5884,PAYLOAD,2024-01-21 13:10:31,14.98331727,0.0002645,70.0,66.4905,262.1589,97.9269,1.809e-05,1.23e-06,0.0,0 STARLINK-5884,1 55957U 23037AV  24021.54897003  .00000123  00000-0  18090-4 0  9999,2 55957  70.0000  66.4905 0002645 262.1589  97.9269 14.98331727 48256,6950.188,96.107,573.891,570.214,0.0
55957.0,STARLINK-5884,PAYLOAD,2024-01-22 06:47:59,14.98327085,0.0002579,70.0,64.6388,263.241,96.8456,8.6927e-06,1.1e-07,0.0,0 STARLINK-5884,1 55957U 23037AV  24022.28333327  .00000011  00000-0  86927-5 0  9996,2 55957  70.0000  64.6388 0002579 263.2410  96.8456 14.98327085 48025,6950.202,96.107,573.859,570.274,0.0
55957.0,STARLINK-5884,PAYLOAD,2024-01-22 13:12:32,14.98328274,0.0002561,70.0,63.9656,263.8728,96.214,2.1701e-05,1.66e-06,0.0,0 STARLINK-5884,1 55957U 23037AV  24022.55037250  .00000166  00000-0  21701-4 0  9991,2 55957  70.0000  63.9656 0002561 263.8728  96.2140 14.98328274 48401,6950.198,96.107,573.843,570.283,0.0
55957.0,STARLINK-5884,PAYLOAD,2024-01-23 06:50:00,14.98332147,0.0002586,69.9998,62.1138,264.5842,95.5022,1.3231e-05,6.5e-07,0.0,0 STARLINK-5884,1 55957U 23037AV  24023.28472965  .00000065  00000-0  13231-4 0  9995,2 55957  69.9998  62.1138 0002586 264.5842  95.5022 14.98332147 48171,6950.186,96.107,573.849,570.254,0.0
